[{"OBJECT_NAME":"KUIPER-00167","OBJECT_ID":"2025-217U","EPOCH":"2026-03-09T07:25:05.974752","MEAN_MOTION":14.79947692,"ECCENTRICITY":8.121e-5,"INCLINATION":51.8966,"RA_OF_ASC_NODE":47.2417,"ARG_OF_PERICENTER":75.791,"MEAN_ANOMALY":284.3142,"EPHEMERIS_TYPE":0,"CLASSIFICATION_TYPE":"U","NORAD_CAT_ID":65780,"ELEMENT_SET_NO":999,"REV_AT_EPOCH":2478,"BSTAR":-2.5142666e-5,"MEAN_MOTION_DOT":-4.13e-6,"MEAN_MOTION_DDOT":0},{"OBJECT_NAME":"YAOGAN-30 01 DEB","OBJECT_ID":"2016-029C","EPOCH":"2026-03-09T07:36:40.701600","MEAN_MOTION":14.31558193,"ECCENTRICITY":0.02287523,"INCLINATION":97.9919,"RA_OF_ASC_NODE":195.6568,"ARG_OF_PERICENTER":356.7572,"MEAN_ANOMALY":3.2118,"EPHEMERIS_TYPE":0,"CLASSIFICATION_TYPE":"U","NORAD_CAT_ID":42677,"ELEMENT_SET_NO":999,"REV_AT_EPOCH":49758,"BSTAR":0.00049876159,"MEAN_MOTION_DOT":1.724e-5,"MEAN_MOTION_DDOT":0}]
